[{"OBJECT_NAME":"STARLINK-1559","OBJECT_ID":"2020-055BC","EPOCH":"2026-03-09T05:36:23.522976","MEAN_MOTION":15.29461733,"ECCENTRICITY":0.0004229,"INCLINATION":53.0254,"RA_OF_ASC_NODE":76.0659,"ARG_OF_PERICENTER":33.971,"MEAN_ANOMALY":326.1559,"EPHEMERIS_TYPE":0,"CLASSIFICATION_TYPE":"U","NORAD_CAT_ID":46077,"ELEMENT_SET_NO":999,"REV_AT_EPOCH":30951,"BSTAR":0.0014778793,"MEAN_MOTION_DOT":0.00042685,"MEAN_MOTION_DDOT":0},{"OBJECT_NAME":"STARLINK-35983","OBJECT_ID":"2025-283AA","EPOCH":"2026-03-09T07:05:30.800832","MEAN_MOTION":15.30251187,"ECCENTRICITY":0.00014748,"INCLINATION":53.1604,"RA_OF_ASC_NODE":26.005,"ARG_OF_PERICENTER":56.685,"MEAN_ANOMALY":303.4292,"EPHEMERIS_TYPE":0,"CLASSIFICATION_TYPE":"U","NORAD_CAT_ID":66902,"ELEMENT_SET_NO":999,"REV_AT_EPOCH":1578,"BSTAR":0.0010750299,"MEAN_MOTION_DOT":0.00031666,"MEAN_MOTION_DDOT":0}]
