STARLINK-1559           
1 46077U 20055BC  26068.23360559  .00042685  00000+0  14779-2 0  9995
2 46077  53.0254  76.0659 0004229  33.9710 326.1559 15.29461733309518
STARLINK-35983          
1 66902U 25283AA  26068.29549538  .00031666  00000+0  10750-2 0  9996
2 66902  53.1604  26.0050 0001474  56.6850 303.4292 15.30251187 15780
